[{"OBJECT_NAME":"JILIN-1 GAOFEN 03D47","OBJECT_ID":"2022-167L","EPOCH":"2026-03-09T22:56:46.924224","MEAN_MOTION":15.31686941,"ECCENTRICITY":0.00089304,"INCLINATION":97.6835,"RA_OF_ASC_NODE":234.6581,"ARG_OF_PERICENTER":110.4031,"MEAN_ANOMALY":249.8169,"EPHEMERIS_TYPE":0,"CLASSIFICATION_TYPE":"U","NORAD_CAT_ID":54692,"ELEMENT_SET_NO":999,"REV_AT_EPOCH":18014,"BSTAR":0.00047294748,"MEAN_MOTION_DOT":0.00014417,"MEAN_MOTION_DDOT":0},{"OBJECT_NAME":"STARLINK-32011","OBJECT_ID":"2024-111Q","EPOCH":"2026-03-09T08:00:20.622528","MEAN_MOTION":15.30159734,"ECCENTRICITY":0.00012588,"INCLINATION":53.1604,"RA_OF_ASC_NODE":76.9489,"ARG_OF_PERICENTER":96.6358,"MEAN_ANOMALY":263.4786,"EPHEMERIS_TYPE":0,"CLASSIFICATION_TYPE":"U","NORAD_CAT_ID":60030,"ELEMENT_SET_NO":999,"REV_AT_EPOCH":9898,"BSTAR":-0.00017558586,"MEAN_MOTION_DOT":-5.549e-5,"MEAN_MOTION_DDOT":0}]
